ASTRA 1M                
1 33436U 08057A   26191.57073093  .00000130  00000+0  00000+0 0  9994
2 33436   0.3536  82.7199 0004793  41.3190  29.3295  1.00274113 45979
EUTELSAT HOTBIRD 13C    
1 33459U 08065A   26191.55686420 -.00000276  00000+0  00000+0 0  9992
2 33459   3.0074  78.9141 0003356  32.7621 326.9604  1.00272490 47576
EXPRESS-AM44            
1 33595U 09007A   26191.63603343 -.00000084  00000+0  00000+0 0  9999
2 33595   3.5208  78.1083 0003721  27.8245  40.5741  1.00270970 52524
NSS-9                   
1 33749U 09008A   26191.53181740  .00000080  00000+0  00000+0 0  9997
2 33749   1.3190  82.4286 0001896  17.4562 203.0849  1.00270390 63750
TELSTAR 11N             
1 34111U 09009A   26191.41686863 -.00000240  00000+0  00000+0 0  9994
2 34111   0.0453 263.0325 0002336 202.0656 295.7647  1.00270423 46470
WGS F2 (USA 204)        
1 34713U 09017A   26190.99280795  .00000080  00000+0  00000+0 0  9998
2 34713   0.0168  26.5668 0000528 187.3642 128.8954  1.00270901 45842
SES-7 (PROTOSTAR 2)     
1 34941U 09027A   26191.54711149 -.00000335  00000+0  00000+0 0  9990
2 34941   0.0193  54.2329 0000450 183.7392 355.7068  1.00271015 62866
MEASAT-3A               
1 35362U 09032A   26191.49440861 -.00000101  00000+0  00000+0 0  9999
2 35362   0.0236  24.5620 0002746  79.6023 162.2341  1.00270493  8268
GOES 14                 
1 35491U 09033A   26191.59226656 -.00000345  00000+0  00000+0 0  9998
2 35491   1.7471  82.7532 0001906  38.8634 148.0373  1.00100484  6829
FM-5                    
1 35493U 09034A   26191.31906358 -.00000189  00000+0  00000+0 0  9991
2 35493   0.0334 277.7695 0000348  38.0404   1.1277  1.00270176 46870
TERRESTAR-1             
1 35496U 09035A   26191.04593390 -.00000050  00000+0  00000+0 0  9990
2 35496   5.1922  48.7813 0002601  53.9167  90.8096  1.00273784 62360
ASIASAT 5               
1 35696U 09042A   26191.58680654 -.00000298  00000+0  00000+0 0  9993
2 35696   0.0176 282.8838 0001800 154.9493 162.3988  1.00274874 61948
JCSAT-12 (JCSAT-RA)     
1 35755U 09044A   26191.59304656 -.00000318  00000+0  00000+0 0  9990
2 35755   0.0415 279.7805 0000529 293.9869  60.2971  1.00271106 61849
OPTUS D3                
1 35756U 09044B   26191.09875279 -.00000133  00000+0  00000+0 0  9995
2 35756   0.8894 268.2860 0003054 203.7510   7.6763  1.00270992 61791
NIMIQ 5                 
1 35873U 09050A   26191.31251738 -.00000246  00000+0  00000+0 0  9990
2 35873   0.0532 260.3586 0002563 207.4226 220.2505  1.00269397 61579
AMAZONAS 2              
1 35942U 09054A   26191.55244418 -.00000251  00000+0  00000+0 0  9990
2 35942   1.8730  82.7507 0003162  28.8428 303.7696  1.00271479 61414
COMSATBW-1              
1 35943U 09054B   26191.61086194  .00000035  00000+0  00000+0 0  9992
2 35943   0.0613 189.2865 0002669 281.4891 100.7158  1.00268855 61544
NSS-12                  
1 36032U 09058A   26191.57809763  .00000082  00000+0  00000+0 0  9998
2 36032   0.0462 284.1510 0004474 151.5568 117.9083  1.00267825 61152
THOR 6                  
1 36033U 09058B   26191.06772597  .00000002  00000+0  00000+0 0  9999
2 36033   0.0330 242.6050 0002256 261.1122 167.8048  1.00271204 61235
INTELSAT 14 (IS-14)     
1 36097U 09064A   26191.48667339 -.00000263  00000+0  00000+0 0  9999
2 36097   0.0185  22.6412 0002266  92.1709 303.8111  1.00271724 60830
EUTELSAT 36B            
1 36101U 09065A   26191.57688428  .00000121  00000+0  00000+0 0  9990
2 36101   0.5472  81.2894 0005753  29.7486  75.6166  1.00271930 60942
INTELSAT 15 (IS-15)     
1 36106U 09067A   26191.55878071 -.00000175  00000+0  00000+0 0  9990
2 36106   0.0128  45.3490 0002129  71.5116  97.9328  1.00271527 41467
WGS F3 (USA 211)        
1 36108U 09068A   26191.24767128  .00000075  00000+0  00000+0 0  9997
2 36108   0.3012  85.6336 0000691 108.9002  52.8238  1.00270962 46828
DIRECTV 12              
1 36131U 09075A   26191.40395524 -.00000093  00000+0  00000+0 0  9997
2 36131   0.0378 197.5077 0000394  15.9281 117.5818  1.00270757 46787
BEIDOU-2 G1             
1 36287U 10001A   26191.59469324 -.00000274  00000+0  00000+0 0  9991
2 36287   4.3457  60.3231 0001904 290.5054 292.2136  1.00273787 60405
SDO                     
1 36395U 10005A   26190.29623794 -.00000089  00000+0  00000+0 0  9998
2 36395  34.6945  86.0076 0001880  60.2380 145.3020  1.00269380 60282
INTELSAT 16 (IS-16)     
1 36397U 10006A   26191.55175083 -.00000235  00000+0  00000+0 0  9997
2 36397   0.0117  14.5260 0002260 117.4552 278.9210  1.00271500 59887
EWS-G2 (GOES 15)        
1 36411U 10008A   26191.61086194  .00000030  00000+0  00000+0 0  9999
2 36411   1.3390  82.5210 0005225  53.0196  76.2692  1.00268059 59871
ECHOSTAR 14             
1 36499U 10010A   26191.63218505  .00000010  00000+0  00000+0 0  9991
2 36499   0.0477 261.9417 0001959 188.7366 306.5491  1.00270460 46787
SES-1                   
1 36516U 10016A   26191.62530096 -.00000105  00000+0  00000+0 0  9994
2 36516   0.0461 282.6321 0002452 184.2477 305.7609  1.00270320 59261
ASTRA 3B                
1 36581U 10021A   26191.57159759  .00000145  00000+0  00000+0 0  9992
2 36581   1.5285  83.2732 0004275  21.8715  52.6402  1.00274880 59107
COMSATBW-2              
1 36582U 10021B   26191.56951759  .00000098  00000+0  00000+0 0  9999
2 36582   0.0453 129.2794 0002388 359.6472  17.7976  1.00272288 59190
