OBJECT_NAME,OBJECT_ID,EPOCH,MEAN_MOTION,ECCENTRICITY,INCLINATION,RA_OF_ASC_NODE,ARG_OF_PERICENTER,MEAN_ANOMALY,EPHEMERIS_TYPE,CLASSIFICATION_TYPE,NORAD_CAT_ID,ELEMENT_SET_NO,REV_AT_EPOCH,BSTAR,MEAN_MOTION_DOT,MEAN_MOTION_DDOT
ASTRA 1M,2008-057A,2026-07-10T13:41:51.152352,1.00274113,.00047935,0.3536,82.7199,41.3190,29.3295,0,U,33436,999,4597,0,.13E-5,0
EUTELSAT HOTBIRD 13C,2008-065A,2026-07-10T13:21:53.066880,1.00272490,.00033565,3.0074,78.9141,32.7621,326.9604,0,U,33459,999,4757,0,-.276E-5,0
EXPRESS-AM44,2009-007A,2026-07-10T15:15:53.288352,1.00270970,.0003721,3.5208,78.1083,27.8245,40.5741,0,U,33595,999,5252,0,-.84E-6,0
NSS-9,2009-008A,2026-07-10T12:45:49.023360,1.00270390,.00018961,1.3190,82.4286,17.4562,203.0849,0,U,33749,999,6375,0,.8E-6,0
TELSTAR 11N,2009-009A,2026-07-10T10:00:17.449632,1.00270423,.00023363,0.0453,263.0325,202.0656,295.7647,0,U,34111,999,4647,0,-.24E-5,0
WGS F2 (USA 204),2009-017A,2026-07-09T23:49:38.606880,1.00270901,.00005289,0.0168,26.5668,187.3642,128.8954,0,U,34713,999,4584,0,.8E-6,0
SES-7 (PROTOSTAR 2),2009-027A,2026-07-10T13:07:50.432736,1.00271015,.00004505,0.0193,54.2329,183.7392,355.7068,0,U,34941,999,6286,0,-.335E-5,0
MEASAT-3A,2009-032A,2026-07-10T11:51:56.903904,1.00270493,.00027463,0.0236,24.5620,79.6023,162.2341,0,U,35362,999,826,0,-.101E-5,0
GOES 14,2009-033A,2026-07-10T14:12:51.830784,1.00100484,.00019068,1.7471,82.7532,38.8634,148.0373,0,U,35491,999,682,0,-.345E-5,0
FM-5,2009-034A,2026-07-10T07:39:27.093312,1.00270176,.00003487,0.0334,277.7695,38.0404,1.1277,0,U,35493,999,4687,0,-.189E-5,0
TERRESTAR-1,2009-035A,2026-07-10T01:06:08.688960,1.00273784,.00026016,5.1922,48.7813,53.9167,90.8096,0,U,35496,999,6236,0,-.5E-6,0
ASIASAT 5,2009-042A,2026-07-10T14:05:00.085056,1.00274874,.00018,0.0176,282.8838,154.9493,162.3988,0,U,35696,999,6194,0,-.298E-5,0
JCSAT-12 (JCSAT-RA),2009-044A,2026-07-10T14:13:59.222784,1.00271106,.00005294,0.0415,279.7805,293.9869,60.2971,0,U,35755,999,6184,0,-.318E-5,0
OPTUS D3,2009-044B,2026-07-10T02:22:12.241056,1.00270992,.00030546,0.8894,268.2860,203.7510,7.6763,0,U,35756,999,6179,0,-.133E-5,0
NIMIQ 5,2009-050A,2026-07-10T07:30:01.501632,1.00269397,.00025638,0.0532,260.3586,207.4226,220.2505,0,U,35873,999,6157,0,-.246E-5,0
AMAZONAS 2,2009-054A,2026-07-10T13:15:31.177152,1.00271479,.00031622,1.8730,82.7507,28.8428,303.7696,0,U,35942,999,6141,0,-.251E-5,0
COMSATBW-1,2009-054B,2026-07-10T14:39:38.471616,1.00268855,.00026692,0.0613,189.2865,281.4891,100.7158,0,U,35943,999,6154,0,.35E-6,0
NSS-12,2009-058A,2026-07-10T13:52:27.635232,1.00267825,.00044746,0.0462,284.1510,151.5568,117.9083,0,U,36032,999,6115,0,.82E-6,0
THOR 6,2009-058B,2026-07-10T01:37:31.523808,1.00271204,.00022568,0.0330,242.6050,261.1122,167.8048,0,U,36033,999,6123,0,.2E-7,0
INTELSAT 14 (IS-14),2009-064A,2026-07-10T11:40:48.580896,1.00271724,.00022665,0.0185,22.6412,92.1709,303.8111,0,U,36097,999,6083,0,-.263E-5,0
EUTELSAT 36B,2009-065A,2026-07-10T13:50:42.801792,1.00271930,.00057533,0.5472,81.2894,29.7486,75.6166,0,U,36101,999,6094,0,.121E-5,0
INTELSAT 15 (IS-15),2009-067A,2026-07-10T13:24:38.653344,1.00271527,.00021295,0.0128,45.3490,71.5116,97.9328,0,U,36106,999,4146,0,-.175E-5,0
WGS F3 (USA 211),2009-068A,2026-07-10T05:56:38.798592,1.00270962,.00006911,0.3012,85.6336,108.9002,52.8238,0,U,36108,999,4682,0,.75E-6,0
DIRECTV 12,2009-075A,2026-07-10T09:41:41.732736,1.00270757,.00003948,0.0378,197.5077,15.9281,117.5818,0,U,36131,999,4678,0,-.93E-6,0
BEIDOU-2 G1,2010-001A,2026-07-10T14:16:21.495936,1.00273787,.0001904,4.3457,60.3231,290.5054,292.2136,0,U,36287,999,6040,0,-.274E-5,0
SDO,2010-005A,2026-07-09T07:06:34.958016,1.00269380,.00018801,34.6945,86.0076,60.2380,145.3020,0,U,36395,999,6028,0,-.89E-6,0
INTELSAT 16 (IS-16),2010-006A,2026-07-10T13:14:31.271712,1.00271500,.000226,0.0117,14.5260,117.4552,278.9210,0,U,36397,999,5988,0,-.235E-5,0
EWS-G2 (GOES 15),2010-008A,2026-07-10T14:39:38.471616,1.00268059,.00052253,1.3390,82.5210,53.0196,76.2692,0,U,36411,999,5987,0,.3E-6,0
ECHOSTAR 14,2010-010A,2026-07-10T15:10:20.788320,1.00270460,.00019597,0.0477,261.9417,188.7366,306.5491,0,U,36499,999,4678,0,.1E-6,0
SES-1,2010-016A,2026-07-10T15:00:26.002944,1.00270320,.00024527,0.0461,282.6321,184.2477,305.7609,0,U,36516,999,5926,0,-.105E-5,0
ASTRA 3B,2010-021A,2026-07-10T13:43:06.031776,1.00274880,.00042751,1.5285,83.2732,21.8715,52.6402,0,U,36581,999,5910,0,.145E-5,0
COMSATBW-2,2010-021B,2026-07-10T13:40:06.319776,1.00272288,.00023886,0.0453,129.2794,359.6472,17.7976,0,U,36582,999,5919,0,.98E-6,0
